{
  "norad_id": 57195,
  "name": "AVION KALUGA 650",
  "history": [
    {
      "epoch": "2026-03-28T21:49:42.235968Z",
      "apogee_km": 515.2065238790856,
      "perigee_km": 499.6806413581744,
      "latitude_deg": 2.055869519367219e-05,
      "longitude_deg": -5.920082315846466,
      "height_km": 504.4356213334599,
      "semi_major_axis_km": 6885.58058261863,
      "eccentricity": 0.00112742,
      "inclination_deg": 97.5181,
      "raan_deg": 147.8291,
      "arg_perigee_deg": 38.4538,
      "mean_anomaly_deg": 321.7498,
      "mean_motion_rev_day": 15.19469245
    },
    {
      "epoch": "2026-03-29T04:09:01.420704Z",
      "apogee_km": 515.1673166646324,
      "perigee_km": 499.67893771453146,
      "latitude_deg": 2.2762630410496862e-05,
      "longitude_deg": -100.74735409263192,
      "height_km": 504.35474604274805,
      "semi_major_axis_km": 6885.560127189581,
      "eccentricity": 0.0011247,
      "inclination_deg": 97.5181,
      "raan_deg": 148.0914,
      "arg_perigee_deg": 37.5467,
      "mean_anomaly_deg": 322.6551,
      "mean_motion_rev_day": 15.19476016
    },
    {
      "epoch": "2026-03-30T03:51:27.777024Z",
      "apogee_km": 515.0756766875129,
      "perigee_km": 499.66866137089346,
      "latitude_deg": 4.1038307822317694e-05,
      "longitude_deg": -96.3473989705114,
      "height_km": 504.0926321376835,
      "semi_major_axis_km": 6885.509169029203,
      "eccentricity": 0.0011188,
      "inclination_deg": 97.5179,
      "raan_deg": 149.0748,
      "arg_perigee_deg": 34.4506,
      "mean_anomaly_deg": 325.7452,
      "mean_motion_rev_day": 15.19492884
    },
    {
      "epoch": "2026-03-30T05:26:17.499552Z",
      "apogee_km": 515.0687087518827,
      "perigee_km": 499.6694121577957,
      "latitude_deg": 2.9677013909008704e-05,
      "longitude_deg": -120.05398254808219,
      "height_km": 504.0783175012096,
      "semi_major_axis_km": 6885.506060454839,
      "eccentricity": 0.00111824,
      "inclination_deg": 97.5179,
      "raan_deg": 149.1403,
      "arg_perigee_deg": 34.2598,
      "mean_anomaly_deg": 325.9356,
      "mean_motion_rev_day": 15.19493913
    }
  ]
}